STARLINK-36907          
1 67940U 26037J   26074.25344350  .00399436  00000+0  18168-2 0  9998
2 67940  42.9979 164.3724 0002300 310.7156  49.3516 15.81973930  4135
STARLINK-36927          
1 67941U 26037K   26074.25194357  .00398979  00000+0  18160-2 0  9992
2 67941  42.9978 164.3600 0001527 284.4715  75.5987 15.81960512  4131
STARLINK-36914          
1 67942U 26037L   26074.25494390  .00459729  00000+0  20745-2 0  9996
2 67942  42.9976 164.3859 0002421 316.0488  44.0191 15.81989403  4137
STARLINK-36851          
1 67943U 26037M   26074.25419178  .00364516  00000+0  16649-2 0  9995
2 67943  42.9976 164.3783 0001672 275.4500  84.6181 15.81975845  4138
STARLINK-36892          
1 67944U 26037N   26074.25269457  .00399870  00000+0  18166-2 0  9996
2 67944  42.9980 164.3670 0001822 303.4310  56.6387 15.81998673  4138
STARLINK-36908          
1 67945U 26037P   26074.25119537  .00370626  00000+0  16885-2 0  9994
2 67945  42.9980 164.3545 0001190 293.5966  66.4780 15.82013722  4134
STARLINK-36909          
1 67946U 26037Q   26074.25044533  .00360435  00000+0  16479-2 0  9994
2 67946  42.9983 164.3484 0001899 297.2019  62.8659 15.81965034  4132
STARLINK-36920          
1 67947U 26037R   26074.24969911  .00399882  00000+0  18163-2 0  9990
2 67947  42.9980 164.3417 0002240 321.2121  38.8590 15.82003445  4136
STARLINK-36873          
1 67948U 26037S   26074.24894794  .00398667  00000+0  18116-2 0  9995
2 67948  42.9977 164.3356 0001147 292.5168  67.5582 15.81995465  4132
STARLINK-36863          
1 67949U 26037T   26074.24819517  .00348512  00000+0  15956-2 0  9999
2 67949  42.9981 164.3293 0001509 271.4331  88.6367 15.81965483  4130
STARLINK-36887          
1 67950U 26037U   26072.98472422  .00715143  00000+0  30610-2 0  9992
2 67950  42.9981 172.0607 0001689 286.6573  73.4114 15.82469233  3934
STARLINK-36897          
1 67951U 26037V   26074.24669950  .00388718  00000+0  17705-2 0  9992
2 67951  42.9986 164.3174 0001473 255.3844 104.6865 15.81972891  4139
